MEAN_MOTION;ECCENTRICITY;INCLINATION;RA_OF_ASC_NODE;ARG_OF_PERICENTER;MEAN_ANOMALY;BSTAR;MEAN_MOTION_DOT;MEAN_MOTION_DDOT;TYPE
2.00555869;0.0081582;55.64;315.2504;48.8421;127.9353;0;-1.5E-7;0;Navigation
2.00555869;0.0081582;55.64;315.2504;48.8421;127.9353;0;-1.5E-7;0;Navigation
2.00555921;0.0081637;55.6392;315.2028;48.8914;267.0307;0;-1.7E-7;0;Navigation
2.00555943;0.0081654;55.6389;315.1872;48.9021;189.4683;0;-1.9E-7;0;Navigation
2.00555969;0.0081669;55.6386;315.1708;48.9052;125.9218;0;-2.1E-7;0;Navigation
2.00555969;0.0081669;55.6386;315.1708;48.9052;125.9218;0;-2.1E-7;0;Navigation
2.00556094;0.0081727;55.6373;315.0903;48.9507;139.3912;0;-3.7E-7;0;Navigation
2.00556094;0.0081727;55.6373;315.0903;48.9507;139.3912;0;-3.7E-7;0;Navigation
2.00556128;0.0081743;55.6369;315.071;48.9622;127.3897;0;-4.1E-7;0;Navigation
2.00556175;0.0081759;55.6365;315.0435;48.9816;265.2531;0;-4.7E-7;0;Navigation
2.005562;0.0081775;55.6363;315.0308;48.9885;133.0736;0;-5.0E-7;0;Navigation
2.00556252;0.0081793;55.6358;315.0029;49.0067;276.8605;0;-5.5E-7;0;Navigation
2.00556329;0.0081827;55.6352;314.9624;49.0351;288.9084;0;-5.9E-7;0;Navigation
2.00556329;0.0081827;55.6352;314.9624;49.0351;288.9084;0;-5.9E-7;0;Navigation
2.00556329;0.0081827;55.6352;314.9624;49.0351;288.9084;0;-5.9E-7;0;Navigation
2.00556445;0.0081873;55.6343;314.9059;49.0723;228.9546;0;-6.0E-7;0;Navigation
2.00556475;0.008189;55.6341;314.8916;49.0806;126.7863;0;-5.9E-7;0;Navigation
2.00556555;0.0081922;55.6334;314.8514;49.1116;132.4553;0;-5.4E-7;0;Navigation
2.00556608;0.0081938;55.633;314.8248;49.1289;254;0;-5.0E-7;0;Navigation
2.00556655;0.0081955;55.6327;314.8032;49.1384;284.2498;0;-4.7E-7;0;Navigation
2.00556733;0.0081981;55.6321;314.7639;49.1562;274.5299;0;-4.0E-7;0;Navigation
2.00556768;0.0081994;55.6317;314.7438;49.1694;277.5636;0;-3.7E-7;0;Navigation
2.00556835;0.0082019;55.6311;314.7034;49.1952;287.6048;0;-3.1E-7;0;Navigation
2.0055689;0.0082041;55.6305;314.6657;49.2201;248.2775;0;-2.8E-7;0;Navigation
2.00556919;0.0082055;55.6301;314.644;49.233;281.9209;0;-2.6E-7;0;Navigation
2.00556942;0.0082065;55.6298;314.6251;49.2446;261.846;0;-2.5E-7;0;Navigation
2.00556957;0.0082075;55.6296;314.6125;49.2556;129.4035;0;-2.5E-7;0;Navigation
2.00556957;0.0082075;55.6296;314.6125;49.2556;129.4035;0;-2.5E-7;0;Navigation
2.00556957;0.0082075;55.6296;314.6125;49.2556;129.4035;0;-2.5E-7;0;Navigation
2.00556957;0.0082075;55.6296;314.6125;49.2556;129.4035;0;-2.5E-7;0;Navigation
2.00557052;0.0082142;55.628;314.5065;49.3282;246.8825;0;-2.3E-7;0;Navigation
2.00557067;0.0082158;55.6277;314.4828;49.3478;314.9343;0;-2.3E-7;0;Navigation
2.00557067;0.0082158;55.6277;314.4828;49.3478;314.9343;0;-2.3E-7;0;Navigation
2.00557103;0.0082188;55.6268;314.4256;49.3909;269.6024;0;-2.3E-7;0;Navigation
2.00557103;0.0082188;55.6268;314.4256;49.3909;269.6024;0;-2.3E-7;0;Navigation
2.00557136;0.0082218;55.626;314.3733;49.4238;135.3932;0;-2.1E-7;0;Navigation
2.00557163;0.0082238;55.6253;314.3287;49.4525;221.8216;0;-1.9E-7;0;Navigation
2.00557178;0.0082249;55.6249;314.3069;49.4676;255.6482;0;-1.7E-7;0;Navigation
2.00557178;0.0082249;55.6249;314.3069;49.4676;255.6482;0;-1.7E-7;0;Navigation
2.00557207;0.0082272;55.6243;314.2662;49.4931;269.379;0;-1.4E-7;0;Navigation
2.00557219;0.0082282;55.6241;314.2536;49.4987;138.1801;0;-1.3E-7;0;Navigation
2.00557224;0.0082285;55.624;314.2442;49.5026;307.3784;0;-1.3E-7;0;Navigation
2.00557241;0.0082296;55.6237;314.2241;49.5163;310.2944;0;-1.1E-7;0;Navigation
2.00557276;0.0082322;55.6231;314.1853;49.5415;290.9859;0;-1.0E-7;0;Navigation
2.00557287;0.0082331;55.6229;314.1754;49.5458;110.572;0;-1.0E-7;0;Navigation
2.00557332;0.0082353;55.6222;314.1344;49.5741;130.1156;0;-1.1E-7;0;Navigation
2.00557332;0.0082353;55.6222;314.1344;49.5741;130.1156;0;-1.1E-7;0;Navigation
2.00557418;0.008238;55.6212;314.0664;49.6205;279.634;0;-2.0E-7;0;Navigation
2.0055745;0.0082389;55.6208;314.0448;49.631;309.7025;0;-2.4E-7;0;Navigation
2.0055745;0.0082389;55.6208;314.0448;49.631;309.7025;0;-2.4E-7;0;Navigation
2.0055745;0.0082389;55.6208;314.0448;49.631;309.7025;0;-2.4E-7;0;Navigation
2.00557599;0.0082428;55.6193;313.9552;49.6869;129.5052;0;-4.5E-7;0;Navigation
2.0055765;0.0082434;55.6188;313.9262;49.7031;292.5791;0;-5.1E-7;0;Navigation
2.0055765;0.0082434;55.6188;313.9262;49.7031;292.5791;0;-5.1E-7;0;Navigation
2.00557765;0.0082457;55.6179;313.8666;49.7375;289.9938;0;-5.9E-7;0;Navigation
2.00557808;0.0082466;55.6175;313.8449;49.7468;321.7121;0;-6.0E-7;0;Navigation
2.00557808;0.0082466;55.6175;313.8449;49.7468;321.7121;0;-6.0E-7;0;Navigation
2.00557848;0.0082474;55.6172;313.8254;49.7578;314.8776;0;-6.0E-7;0;Navigation
2.00557883;0.0082482;55.617;313.8075;49.7663;278.3992;0;-6.0E-7;0;Navigation
2.00557947;0.00825;55.6165;313.7759;49.785;128.9953;0;-5.7E-7;0;Navigation
2.00557947;0.00825;55.6165;313.7759;49.785;128.9953;0;-5.7E-7;0;Navigation
2.00558028;0.0082515;55.6158;313.7353;49.8075;142.5985;0;-5.2E-7;0;Navigation
2.00558083;0.0082519;55.6154;313.7075;49.8201;285.5355;0;-4.8E-7;0;Navigation
2.00558105;0.0082525;55.6152;313.6957;49.83;139.2177;0;-4.6E-7;0;Navigation
2.00558123;0.0082526;55.6151;313.6863;49.8292;308.6271;0;-4.5E-7;0;Navigation
2.00558195;0.0082535;55.6145;313.6462;49.8516;314.2903;0;-3.9E-7;0;Navigation
2.00558195;0.0082535;55.6145;313.6462;49.8516;314.2903;0;-3.9E-7;0;Navigation
2.00558284;0.0082542;55.6135;313.589;49.8851;270.1881;0;-3.3E-7;0;Navigation
2.00558313;0.0082543;55.6132;313.5678;49.9009;294.0758;0;-3.2E-7;0;Navigation
2.00558313;0.0082543;55.6132;313.5678;49.9009;294.0758;0;-3.2E-7;0;Navigation
2.00558385;0.0082571;55.6122;313.5084;49.9163;288.3824;0;-3.0E-7;0;Navigation
2.00558385;0.0082571;55.6122;313.5084;49.9163;288.3824;0;-3.0E-7;0;Navigation
2.00558421;0.0082566;55.6116;313.4676;49.9601;306.2468;0;-3.1E-7;0;Navigation
2.00558421;0.0082566;55.6116;313.4676;49.9601;306.2468;0;-3.1E-7;0;Navigation
2.00558421;0.0082566;55.6116;313.4676;49.9601;306.2468;0;-3.1E-7;0;Navigation
2.00558421;0.0082566;55.6116;313.4676;49.9601;306.2468;0;-3.1E-7;0;Navigation
2.00558519;0.008259;55.6093;313.3276;50.0497;320.6391;0;-3.1E-7;0;Navigation
2.00558519;0.008259;55.6093;313.3276;50.0497;320.6391;0;-3.1E-7;0;Navigation
2.00558519;0.008259;55.6093;313.3276;50.0497;320.6391;0;-3.1E-7;0;Navigation
2.00558529;0.0082593;55.609;313.3089;50.0603;298.8728;0;-3.1E-7;0;Navigation
2.00558529;0.0082593;55.609;313.3089;50.0603;298.8728;0;-3.1E-7;0;Navigation
2.00558529;0.0082593;55.609;313.3089;50.0603;298.8728;0;-3.1E-7;0;Navigation
2.00558529;0.0082593;55.609;313.3089;50.0603;298.8728;0;-3.1E-7;0;Navigation
2.00558575;0.0082604;55.6079;313.2368;50.0995;164.6629;0;-2.7E-7;0;Navigation
2.00558575;0.0082604;55.6079;313.2368;50.0995;164.6629;0;-2.7E-7;0;Navigation
2.00558601;0.0082611;55.6072;313.1987;50.1186;132.9283;0;-2.5E-7;0;Navigation
2.00558601;0.0082611;55.6072;313.1987;50.1186;132.9283;0;-2.5E-7;0;Navigation
2.00558655;0.0082619;55.6061;313.128;50.1568;332.5293;0;-2.0E-7;0;Navigation
2.00558671;0.0082618;55.6057;313.1094;50.1712;309.1653;0;-1.9E-7;0;Navigation
2.0055872;0.0082622;55.605;313.0598;50.2011;126.6963;0;-2.0E-7;0;Navigation
2.00558756;0.008262;55.6044;313.028;50.2183;341.2023;0;-2.2E-7;0;Navigation
2.00558775;0.0082632;55.6041;313.0111;50.2197;287.4203;0;-2.4E-7;0;Navigation
2.00558775;0.0082632;55.6041;313.0111;50.2197;287.4203;0;-2.4E-7;0;Navigation
2.00558775;0.0082632;55.6041;313.0111;50.2197;287.4203;0;-2.4E-7;0;Navigation
2.00558775;0.0082632;55.6041;313.0111;50.2197;287.4203;0;-2.4E-7;0;Navigation
2.00558891;0.0082635;55.6027;312.9282;50.2559;346.4307;0;-4.1E-7;0;Navigation
2.00558967;0.0082642;55.6019;312.8807;50.2753;126.1426;0;-5.3E-7;0;Navigation
2.00558971;0.0082641;55.6019;312.8782;50.278;171.9665;0;-5.4E-7;0;Navigation
2.00558971;0.0082641;55.6019;312.8782;50.278;171.9665;0;-5.4E-7;0;Navigation
2.00559037;0.0082645;55.6012;312.8406;50.2913;131.8418;0;-6.3E-7;0;Navigation
2.00559037;0.0082645;55.6012;312.8406;50.2913;131.8418;0;-6.3E-7;0;Navigation
2.00559037;0.0082645;55.6012;312.8406;50.2913;131.8418;0;-6.3E-7;0;Navigation
2.00559209;0.0082646;55.5997;312.7511;50.3242;311.4765;0;-7.3E-7;0;Navigation
2.00559209;0.0082646;55.5997;312.7511;50.3242;311.4765;0;-7.3E-7;0;Navigation
2.00559306;0.0082651;55.5989;312.7017;50.3491;125.6209;0;-7.2E-7;0;Navigation
2.00559405;0.0082644;55.5982;312.6524;50.368;298.964;0;-6.7E-7;0;Navigation
2.00559423;0.0082629;55.598;312.6415;50.3845;137.1067;0;-6.5E-7;0;Navigation
2.00559423;0.0082629;55.598;312.6415;50.3845;137.1067;0;-6.5E-7;0;Navigation
2.00559557;0.0082623;55.5968;312.5699;50.4088;353.3138;0;-5.5E-7;0;Navigation
2.00559617;0.0082632;55.5961;312.5338;50.4143;286.8013;0;-5.1E-7;0;Navigation
2.00559633;0.0082631;55.5959;312.5229;50.4226;125.1147;0;-5.0E-7;0;Navigation
2.00559691;0.0082624;55.5953;312.4828;50.4381;130.7836;0;-4.7E-7;0;Navigation
2.00559691;0.0082624;55.5953;312.4828;50.4381;130.7836;0;-4.7E-7;0;Navigation
2.00559751;0.0082618;55.5944;312.4328;50.4553;315.2737;0;-4.6E-7;0;Navigation
2.00559774;0.0082619;55.594;312.4111;50.464;348.0102;0;-4.7E-7;0;Navigation
2.00559792;0.0082618;55.5937;312.3933;50.4712;310.4607;0;-4.7E-7;0;Navigation
2.00559792;0.0082618;55.5937;312.3933;50.4712;310.4607;0;-4.7E-7;0;Navigation
2.00559828;0.0082614;55.593;312.3517;50.4911;343.4494;0;-4.8E-7;0;Navigation
2.00559828;0.0082614;55.593;312.3517;50.4911;343.4494;0;-4.8E-7;0;Navigation
2.00559853;0.0082599;55.5925;312.3206;50.5117;187.1364;0;-4.8E-7;0;Navigation
2.00559872;0.0082603;55.592;312.2926;50.5214;334.223;0;-4.8E-7;0;Navigation
2.00559872;0.0082603;55.592;312.2926;50.5214;334.223;0;-4.8E-7;0;Navigation
2.00559872;0.0082603;55.592;312.2926;50.5214;334.223;0;-4.8E-7;0;Navigation
2.00559945;0.0082586;55.59;312.1742;50.5674;318.3819;0;-4.5E-7;0;Navigation
2.00559945;0.0082586;55.59;312.1742;50.5674;318.3819;0;-4.5E-7;0;Navigation
2.00559945;0.0082586;55.59;312.1742;50.5674;318.3819;0;-4.5E-7;0;Navigation
2.00559986;0.0082581;55.5888;312.1121;50.5873;3.6;0;-4.0E-7;0;Navigation
